STARLINK-30961          
1 58445U 23183J   26068.98515877 -.00000859  00000+0 -22357-4 0  9991
2 58445  43.0029  39.5902 0001737 271.5992  88.4660 15.26734072126780
MESON-1                 
1 59131U 24043AK  26068.90019075  .00008544  00000+0  29748-3 0  9998
2 59131  97.5469 205.2839 0009545 227.1432 132.9007 15.29893494111890
